OBJECT_NAME,OBJECT_ID,EPOCH,MEAN_MOTION,ECCENTRICITY,INCLINATION,RA_OF_ASC_NODE,ARG_OF_PERICENTER,MEAN_ANOMALY,EPHEMERIS_TYPE,CLASSIFICATION_TYPE,NORAD_CAT_ID,ELEMENT_SET_NO,REV_AT_EPOCH,BSTAR,MEAN_MOTION_DOT,MEAN_MOTION_DDOT
GEOSCAN 3 (RS92S3),2025-155T,2026-07-02T18:23:45.829824,15.35929280,.0008354,97.4547,153.8305,118.7867,241.4216,0,U,64893,999,8324,.56564E-3,.19749E-3,0
INNOSAT 3 (RS92S0),2025-155U,2026-07-02T17:36:19.272096,15.44971790,.000816,97.4492,155.6137,117.5401,242.6678,0,U,64894,999,8336,.8571E-3,.40482E-3,0
KNACKSAT-2,1998-067XZ,2026-07-02T06:29:25.454400,15.61304103,.0008371,51.6255,218.5343,281.3126,78.6927,0,U,67683,999,2263,.55339E-3,.47788E-3,0
