GEOSCAN-3 (RS92S3)
1 64893U 25155T   26183.76650266  .00019749  00000-0  56564-3 0  9995
2 64893  97.4547 153.8305 0008354 118.7867 241.4216 15.35929280 83242
INNOSAT3 (RS92S0)
1 64894U 25155U   26183.73355639  .00040482  00000-0  85710-3 0  9992
2 64894  97.4492 155.6137 0008160 117.5401 242.6678 15.44971790 83362
KNACKSAT-2
1 67683U 98067XZ  26183.27043350  .00047788  00000-0  55339-3 0  9996
2 67683  51.6255 218.5343 0008371 281.3126  78.6927 15.61304103 22630
